{"fetched_at":"2026-03-30T06:02:59Z","count":15439,"tles":[{"name":"STARLINK-33979","line1":"1 63867U 25094D   26087.72733647  .00010772  00000+0  90892-3 0  9999","line2":"2 63867  70.0018 186.5065 0003300 267.8170  92.2611 14.98342236 50059","category":"Starlink"}]}